NORAD_CAT_ID,OBJECT_NAME,OBJECT_TYPE,EPOCH,MEAN_MOTION,ECCENTRICITY,INCLINATION,RA_OF_ASC_NODE,ARG_OF_PERICENTER,MEAN_ANOMALY,BSTAR,MEAN_MOTION_DOT,MEAN_MOTION_DDOT,TLE_LINE0,TLE_LINE1,TLE_LINE2,SEMIMAJOR_AXIS,PERIOD,APOGEE,PERIGEE,DECAYED
53248.0,STARLINK-4135,PAYLOAD,2024-01-04 19:50:07,15.08840395,0.0001328,53.2171,167.5057,92.8795,267.2349,4.8826e-05,4.89e-06,0.0,0 STARLINK-4135,1 53248U 22086G   24004.82647779  .00000489  00000-0  48826-4 0  9993,2 53248  53.2171 167.5057 0001328  92.8795 267.2349 15.08840395 80811,6917.879,95.438,540.663,538.825,0.0
53248.0,STARLINK-4135,PAYLOAD,2024-01-05 14:54:45,15.08834776,0.0001359,53.2176,163.9396,94.9248,265.1899,2.9462e-05,1.81e-06,0.0,0 STARLINK-4135,1 53248U 22086G   24005.62136400  .00000181  00000-0  29462-4 0  9990,2 53248  53.2176 163.9396 0001359  94.9248 265.1899 15.08834776 81434,6917.896,95.438,540.701,538.821,0.0
53248.0,STARLINK-4135,PAYLOAD,2024-01-05 18:05:31,15.0883814,0.000137,53.2175,163.3445,90.6358,269.4791,5.2927e-05,5.54e-06,0.0,0 STARLINK-4135,1 53248U 22086G   24005.75384166  .00000554  00000-0  52927-4 0  9994,2 53248  53.2175 163.3445 0001370  90.6358 269.4791 15.08838140 81459,6917.886,95.438,540.699,538.803,0.0
53248.0,STARLINK-4135,PAYLOAD,2024-01-06 09:59:23,15.08840486,0.0001583,53.2181,160.3719,76.564,283.5529,3.6006e-05,2.85e-06,0.0,0 STARLINK-4135,1 53248U 22086G   24006.41624271  .00000285  00000-0  36006-4 0  9993,2 53248  53.2181 160.3719 0001583  76.5640 283.5529 15.08840486 81058,6917.879,95.438,540.839,538.649,0.0
53248.0,STARLINK-4135,PAYLOAD,2024-01-06 19:31:41,15.08845424,0.0001505,53.2176,158.5869,81.6541,278.4622,7.3685e-05,8.85e-06,0.0,0 STARLINK-4135,1 53248U 22086G   24006.81367745  .00000885  00000-0  73685-4 0  9997,2 53248  53.2176 158.5869 0001505  81.6541 278.4622 15.08845424 81614,6917.864,95.437,540.77,538.688,0.0
53248.0,STARLINK-4135,PAYLOAD,2024-01-07 14:36:19,15.0884017,0.0001529,53.2169,155.0183,97.0127,263.104,4.8956e-05,4.91e-06,0.0,0 STARLINK-4135,1 53248U 22086G   24007.60856066  .00000491  00000-0  48956-4 0  9990,2 53248  53.2169 155.0183 0001529  97.0127 263.1040 15.08840170 81735,6917.88,95.438,540.803,538.687,0.0
53248.0,STARLINK-4135,PAYLOAD,2024-01-07 16:11:42,15.08839629,0.0001441,53.2164,154.7211,82.3365,277.7791,4.6003e-05,4.44e-06,0.0,0 STARLINK-4135,1 53248U 22086G   24007.67480169  .00000444  00000-0  46003-4 0  9993,2 53248  53.2164 154.7211 0001441  82.3365 277.7791 15.08839629 81249,6917.882,95.438,540.743,538.75,0.0
53248.0,STARLINK-4135,PAYLOAD,2024-01-08 14:27:06,15.08872855,0.0001601,53.2182,150.5588,115.8738,244.2419,-0.0004175,-6.932e-05,0.0,0 STARLINK-4135,1 53248U 22086G   24008.60215501 -.00006932  00000-0 -41750-3 0  9996,2 53248  53.2182 150.5588 0001601 115.8738 244.2419 15.08872855 81888,6917.78,95.435,540.753,538.537,0.0
53248.0,STARLINK-4135,PAYLOAD,2024-01-08 16:02:29,15.08871168,0.0001511,53.2181,150.2614,117.1109,243.0037,-0.00040269,-6.697e-05,0.0,0 STARLINK-4135,1 53248U 22086G   24008.66839436 -.00006697  00000-0 -40269-3 0  9993,2 53248  53.2181 150.2614 0001511 117.1109 243.0037 15.08871168 81396,6917.785,95.436,540.695,538.605,0.0
53248.0,STARLINK-4135,PAYLOAD,2024-01-09 09:31:44,15.08839879,0.0001536,53.2184,146.9918,109.9329,250.1829,3.7502e-05,3.09e-06,0.0,0 STARLINK-4135,1 53248U 22086G   24009.39704067  .00000309  00000-0  37502-4 0  9994,2 53248  53.2184 146.9918 0001536 109.9329 250.1829 15.08839879 81502,6917.881,95.438,540.808,538.683,0.0
53248.0,STARLINK-4135,PAYLOAD,2024-01-09 14:17:53,15.08841469,0.0001543,53.2185,146.0998,111.2172,248.8986,5.0348e-05,5.13e-06,0.0,0 STARLINK-4135,1 53248U 22086G   24009.59575933  .00000513  00000-0  50348-4 0  9994,2 53248  53.2185 146.0998 0001543 111.2172 248.8986 15.08841469 82037,6917.876,95.437,540.808,538.673,0.0
53248.0,STARLINK-4135,PAYLOAD,2024-01-09 19:04:02,15.088457,0.0001529,53.218,145.206,111.4816,248.6339,7.3793e-05,8.87e-06,0.0,0 STARLINK-4135,1 53248U 22086G   24009.79447534  .00000887  00000-0  73793-4 0  9994,2 53248  53.2180 145.2060 0001529 111.4816 248.6339 15.08845700 82069,6917.863,95.437,540.786,538.67,0.0
53248.0,STARLINK-4135,PAYLOAD,2024-01-10 09:22:31,15.08837915,0.0001411,53.2175,142.525,108.8618,251.2528,-2.635e-05,-7.07e-06,0.0,0 STARLINK-4135,1 53248U 22086G   24010.39064499 -.00000707  00000-0 -26350-4 0  9997,2 53248  53.2175 142.5250 0001411 108.8618 251.2528 15.08837915 81657,6917.887,95.438,540.728,538.776,0.0
53248.0,STARLINK-4135,PAYLOAD,2024-01-11 12:24:05,15.08834412,0.0001357,53.2182,137.4748,97.8844,262.2302,-2.9987e-05,-7.65e-06,0.0,0 STARLINK-4135,1 53248U 22086G   24011.51673041 -.00000765  00000-0 -29987-4 0  9994,2 53248  53.2182 137.4748 0001357  97.8844 262.2302 15.08834412 81827,6917.897,95.438,540.701,538.824,0.0
53248.0,STARLINK-4135,PAYLOAD,2024-01-11 13:59:28,15.08836483,0.0001716,53.2176,137.1724,61.2677,298.8488,-8.7896e-06,-4.28e-06,0.0,0 STARLINK-4135,1 53248U 22086G   24011.58297052 -.00000428  00000-0 -87896-5 0  9995,2 53248  53.2176 137.1724 0001716  61.2677 298.8488 15.08836483 82336,6917.891,95.438,540.943,538.569,0.0
53248.0,STARLINK-4135,PAYLOAD,2024-01-11 17:10:14,15.08842647,0.0001399,53.2188,136.5851,93.7012,266.414,6.1332e-05,6.88e-06,0.0,0 STARLINK-4135,1 53248U 22086G   24011.71544363  .00000688  00000-0  61332-4 0  9992,2 53248  53.2188 136.5851 0001399  93.7012 266.4140 15.08842647 81854,6917.872,95.437,540.705,538.769,0.0
53248.0,STARLINK-4135,PAYLOAD,2024-01-12 12:14:52,15.08839441,0.000155,53.2194,133.0189,108.7014,251.4147,1.6364e-05,-2.8e-07,0.0,0 STARLINK-4135,1 53248U 22086G   24012.51032831 -.00000028  00000-0  16364-4 0  9997,2 53248  53.2194 133.0189 0001550 108.7014 251.4147 15.08839441 81977,6917.882,95.438,540.819,538.675,0.0
53248.0,STARLINK-4135,PAYLOAD,2024-01-12 13:50:15,15.08839272,0.0001725,53.2193,132.7198,106.6403,253.4778,2.8741e-05,1.69e-06,0.0,0 STARLINK-4135,1 53248U 22086G   24012.57656845  .00000169  00000-0  28741-4 0  9997,2 53248  53.2193 132.7198 0001725 106.6403 253.4778 15.08839272 82486,6917.883,95.438,540.941,538.554,0.0
53248.0,STARLINK-4135,PAYLOAD,2024-01-13 13:41:02,15.08849515,0.0001331,53.2163,128.2545,103.0148,257.0993,2.3192e-05,8.1e-07,0.0,0 STARLINK-4135,1 53248U 22086G   24013.57016383  .00000081  00000-0  23192-4 0  9993,2 53248  53.2163 128.2545 0001331 103.0148 257.0993 15.08849515 82636,6917.851,95.437,540.637,538.796,0.0
53248.0,STARLINK-4135,PAYLOAD,2024-01-13 16:51:48,15.08853522,0.0001366,53.2164,127.6603,102.5449,257.5696,7.6446e-05,9.29e-06,0.0,0 STARLINK-4135,1 53248U 22086G   24013.70263945  .00000929  00000-0  76446-4 0  9997,2 53248  53.2164 127.6603 0001366 102.5449 257.5696 15.08853522 82156,6917.839,95.437,540.649,538.759,0.0
53248.0,STARLINK-4135,PAYLOAD,2024-01-14 11:56:26,15.08843324,0.0001267,53.2156,124.0945,86.1384,273.9753,5.5982e-05,6.03e-06,0.0,0 STARLINK-4135,1 53248U 22086G   24014.49752700  .00000603  00000-0  55982-4 0  9997,2 53248  53.2156 124.0945 0001267  86.1384 273.9753 15.08843324 82270,6917.87,95.437,540.612,538.859,0.0
53248.0,STARLINK-4135,PAYLOAD,2024-01-14 13:31:49,15.08844828,0.0001588,53.2161,123.7981,63.268,296.8474,9.0642e-05,1.155e-05,0.0,0 STARLINK-4135,1 53248U 22086G   24014.56376727  .00001155  00000-0  90642-4 0  9991,2 53248  53.2161 123.7981 0001588  63.2680 296.8474 15.08844828 82783,6917.866,95.437,540.829,538.632,0.0
53248.0,STARLINK-4135,PAYLOAD,2024-01-15 13:22:36,15.08850164,0.0001476,53.2166,119.3367,70.5306,289.5846,4.6122e-05,4.46e-06,0.0,0 STARLINK-4135,1 53248U 22086G   24015.55736262  .00000446  00000-0  46122-4 0  9991,2 53248  53.2166 119.3367 0001476  70.5306 289.5846 15.08850164 82938,6917.849,95.437,540.735,538.693,0.0
53248.0,STARLINK-4135,PAYLOAD,2024-01-16 11:38:00,15.08842987,0.0001433,53.2173,115.1727,86.1711,273.9445,4.2365e-06,-2.21e-06,0.0,0 STARLINK-4135,1 53248U 22086G   24016.48472669 -.00000221  00000-0  42365-5 0  9990,2 53248  53.2173 115.1727 0001433  86.1711 273.9445 15.08842987 82572,6917.871,95.437,540.728,538.745,0.0
53248.0,STARLINK-4135,PAYLOAD,2024-01-16 16:24:09,15.08848875,0.0001382,53.2173,114.2789,89.0438,271.0712,3.3557e-05,2.46e-06,0.0,0 STARLINK-4135,1 53248U 22086G   24016.68344114  .00000246  00000-0  33557-4 0  9993,2 53248  53.2173 114.2789 0001382  89.0438 271.0712 15.08848875 83109,6917.853,95.437,540.674,538.762,0.0
53248.0,STARLINK-4135,PAYLOAD,2024-01-17 11:28:48,15.08836673,0.0001551,53.2176,110.7098,105.8164,254.2999,-6.6313e-05,-1.343e-05,0.0,0 STARLINK-4135,1 53248U 22086G   24017.47833441 -.00001343  00000-0 -66313-4 0  9994,2 53248  53.2176 110.7098 0001551 105.8164 254.2999 15.08836673 82727,6917.891,95.438,540.829,538.683,0.0
53248.0,STARLINK-4135,PAYLOAD,2024-01-17 13:04:10,15.08848435,0.0001286,53.2173,110.4139,95.4739,264.64,3.9703e-05,3.44e-06,0.0,0 STARLINK-4135,1 53248U 22086G   24017.54456537  .00000344  00000-0  39703-4 0  9990,2 53248  53.2173 110.4139 0001286  95.4739 264.6400 15.08848435 83232,6917.855,95.437,540.609,538.83,0.0
53248.0,STARLINK-4135,PAYLOAD,2024-01-18 11:19:34,15.08840319,0.0001437,53.217,106.2527,82.3349,277.7807,0.00010094,1.319e-05,0.0,0 STARLINK-4135,1 53248U 22086G   24018.47193231  .00001319  00000-0  10094-3 0  9996,2 53248  53.2170 106.2527 0001437  82.3349 277.7807 15.08840319 82871,6917.879,95.438,540.739,538.75,0.0
53248.0,STARLINK-4135,PAYLOAD,2024-01-19 11:10:24,15.08821473,0.0001655,53.218,101.7912,95.7035,264.4146,-4.1404e-05,-9.47e-06,0.0,0 STARLINK-4135,1 53248U 22086G   24019.46555995 -.00000947  00000-0 -41404-4 0  9993,2 53248  53.2180 101.7912 0001655  95.7035 264.4146 15.08821473 83029,6917.937,95.439,540.947,538.657,0.0
53248.0,STARLINK-4135,PAYLOAD,2024-01-19 12:45:47,15.08822392,0.0001668,53.2181,101.494,78.5573,281.5607,-3.0277e-05,-7.7e-06,0.0,0 STARLINK-4135,1 53248U 22086G   24019.53180063 -.00000770  00000-0 -30277-4 0  9991,2 53248  53.2181 101.4940 0001668  78.5573 281.5607 15.08822392 83537,6917.934,95.439,540.953,538.645,0.0
